#cP2023  7 14  0  0  0.00000000      96 ORBIT IGS20 HLM  IGS
## 2270 432000.00000000   900.00000000 60139 0.0000000000000
+   32   G01G02G03G04G05G06G07G08G09G10G11G12G13G14G15G16G17
+        G18G19G20G21G22G23G24G25G26G27G28G29G30G31G32  0  0
+          0  0  0  0  0  0  0  0  0  0  0  0  0  0  0  0  0
+          0  0  0  0  0  0  0  0  0  0  0  0  0  0  0  0  0
+          0  0  0  0  0  0  0  0  0  0  0  0  0  0  0  0  0
++         2  2  2  2  2  2  2  3  2  2  2  2  2  2  2  2  2
++         2  2  2  2  2  2  2  2  2  3  2  2  0  2  2  0  0
++         0  0  0  0  0  0  0  0  0  0  0  0  0  0  0  0  0
++         0  0  0  0  0  0  0  0  0  0  0  0  0  0  0  0  0
++         0  0  0  0  0  0  0  0  0  0  0  0  0  0  0  0  0
%c G  cc GPS ccc cccc cccc cccc cccc ccccc ccccc ccccc ccccc
%c cc cc ccc ccc cccc cccc cccc cccc ccccc ccccc ccccc ccccc
%f  1.2500000  1.025000000  0.00000000000  0.000000000000000
%f  0.0000000  0.000000000  0.00000000000  0.000000000000000
%i    0    0    0    0      0      0      0      0         0
%i    0    0    0    0      0      0      0      0         0
/* FINAL ORBIT COMBINATION FROM WEIGHTED AVERAGE OF:        
/* cod esa gfz grg jgx jpl mit ngs sio                      
/* REFERENCED TO IGS TIME (IGST) AND TO WEIGHTED MEAN POLE: 
/* PCV:IGS20      OL/AL:FES2014b NONE     Y  ORB:CMB CLK:CMB
*  2023  7 14 21  0  0.00000000
PG01 -14110.341174  22172.354775  -2507.886710    172.956554  8  6  6  94       
PG02 -16296.906236  20242.853716   5563.917801   -576.201787  7  7  6  79       
PG03 -10905.893505  12902.646030 -20604.133235   -232.516051  5  6  6  75       
PG04  -3353.338155  20778.546369 -16118.212734     95.766100  8  7  5  79       
PG05  24179.855374  -5526.122211   9472.094177   -134.959814  6  6  6  72       
PG06  12883.452081   6971.543375 -22100.744354    577.828112  3  6  3  48       
PG07  -1387.805810  21482.408542  15701.524184    125.005286  7  6  4  80       
PG08 -11329.092849  10834.380618  21318.963427   -132.251035  3  6  5  84       
PG09   5455.161150  24571.413147  -8486.240309   -112.228306  7  7  5  59       
PG10 -19872.161388 -11191.038302  14052.774141    -45.229989  7  7  5  65       
PG11  19816.282649  -7402.014936 -16024.702417   -276.187256  6  4  7  67       
PG12  15059.139858 -11028.068285 -19140.573101   -400.770383  6  5  5  72       
PG13  14956.625241  -1922.374649  21694.366558    547.059597  6  3  6  61       
PG14  16856.475310  13354.634446  15709.565754    122.270085  3  8  3  58       
PG15   9717.179597 -12964.012983  20543.696176     57.976758  7  3  2  63       
PG16 -26049.609271   -430.706847   5965.068306   -480.805720  5  7  7  51       
PG17  13672.966516  21375.071983  -7224.299774    720.887460  8  7  6   4       
PG18     -7.725112 -20026.837556  17359.382023   -345.628008  6  7  7  55       
PG19  15886.457618  16076.447839 -14423.065302    343.846297  8  6  4  52       
PG20  26396.072336  -1577.856795   -799.391349    422.608216  6  7  7           
PG21 -17169.445677  18041.990946   8354.054488    152.084176  7  6  5  67       
PG22 -16542.886467 -12977.839291 -15868.043437    512.703141  9  3  5  98       
PG23  -7803.719459 -14601.619715  20808.933403     43.230897  8  9  8  90       
PG24  14736.602812 -21602.764769   2710.430975   -257.903181  6  5  5  62       
PG25    714.494503 -15527.178634 -21853.299346    456.052814  4  6  5  88       
PG26 -25678.415888  -4798.014691  -5845.596424    236.392723  6  6  6  92       
PG27 -16578.988642  -2037.568168  20492.409376     -3.182113  5  5  8  71       
PG28 -12331.839916  -8943.166371 -21777.884428     82.460961  6  5  3  69       
PG29  -2322.781570 -24618.365519  -9613.320331   -605.563313  6  7  5  56       
PG30   6938.851196  15909.270817  20161.876556 999999.999999                    
PG31 -18597.527127   2381.365449 -19145.741060   -220.116772  5  4  4  93       
PG32 -16263.777020 -18830.025747  -9389.955343   -521.187334  3  7  4  81       
*  2023  7 14 21 15  0.00000000
PG01 -14319.828313  22129.769576    422.515023    172.954748  8  6  7  91       
PG02 -16146.964611  19486.704047   8294.225025   -576.198122  7  7  6  75       
PG03 -13155.097619  12687.973867 -19368.793758   -232.502013  5  6  6  71       
PG04  -4321.034652  19075.408907 -17903.986191     95.775852  8  6  5  68       
PG05  25128.854650  -5301.096558   6818.128161   -134.961227  7  6  6  62       
PG06  11474.195393   9078.406574 -22104.119035    577.824893  3  6  3  50       
PG07  -2469.768811  22714.832338  13589.761548    124.995334  7  7  5  78       
PG08 -12550.790471   8677.305995  21653.218596   -132.253043  4  7  6  93       
PG09   4720.065910  23706.995599 -11031.072669   -112.220014  7  7  5  68       
PG10 -18182.789600 -11224.469088  16153.728780    -45.231244  7  7  6  57       
PG11  18801.729312  -5742.108132 -17829.230093   -276.201880  6  3  7  85       
PG12  17078.560022 -10643.180504 -17569.457993   -400.774406  6  5  5  63       
PG13  15736.343296    443.403430  21241.039506    547.063489  6  3  5  78       
PG14  14953.329475  13368.383904  17508.501191    122.280842  3  8  3  37       
PG15  11194.737996 -10964.429045  20965.878046     57.980126  7  2  3  53       
PG16 -26565.848515   -715.792554   3190.880276   -480.801946  6  7  7  74       
PG17  13751.365760  22124.282369  -4441.261316    720.887985  8  8  6  50       
PG18   1176.463066 -21495.596333  15443.786875   -345.640825  6  7  6  27       
PG19  16269.012826  17508.675026 -12139.838421    343.850869  9  6  4  78       
PG20  26173.226017  -1248.697877  -3628.129433    422.605859  7  7  7  48       
PG21 -16913.161915  16973.891539  10960.893057    152.083882  7  7  5  87       
PG22 -17035.997083 -14681.493493 -13798.449815    512.708145  9  4  5  95       
PG23  -5386.769290 -14587.862765  21556.903570     43.234583  7  8  8  65       
PG24  14814.608704 -20976.145056   5481.905382   -257.914352  6  6  5  73       
PG25   3140.284736 -15401.607432 -21702.335870    456.054926  4  6  5  76       
PG26 -24882.092903  -5095.726559  -8465.857884    236.391628  6  6  6  78       
PG27 -17564.214267  -4138.692408  19373.544209     -3.188994  6  4  8  66       
PG28 -11032.323945 -11046.435837 -21508.033846     82.459708  6  6  3  89       
PG29  -1673.947017 -23547.484715 -12125.899719   -605.564097  6  7  4  81       
PG30   5585.902063  17693.104105  19034.386548 999999.999999                    
PG31 -17422.100362    501.805303 -20328.756626   -220.117452  6  3  3 100       
PG32 -16494.207251 -19770.444284  -6750.724643   -521.194322  4  7  5  63       
*  2023  7 14 21 30  0.00000000
PG01 -14362.419135  21808.965447   3345.444491    172.952968  8  5  7  86       
PG02 -15907.951339  18455.682646  10882.971309   -576.194791  7  8  6  66       
PG03 -15256.117416  12596.931864 -17802.798948   -232.487997  5  7  5  67       
PG04  -5463.574792  17262.722744 -19380.126470     95.785560  8  6  4  61       
PG05  25780.655071  -5112.839265   4046.942012   -134.962517  7  6  6  79       
PG06  10196.244536  11243.610244 -21724.914869    577.821651  3  6  3  73       
PG07  -3368.547709  23784.817632  11244.808595    124.985506  7  7  5  78       
PG08 -13888.482677   6575.054197  21611.906579   -132.254885  5  7  7  90       
PG09   3797.452568  22645.476412 -13386.280571   -112.211744  6  7  5  68       
PG10 -16276.941041 -11353.942040  17983.678268    -45.232961  7  7  6  87       
PG11  17775.276459  -3873.597936 -19326.242978   -276.216370  7  2  7  88       
PG12  18924.957137 -10377.930719 -15701.194173   -400.778566  5  5  6  62       
PG13  16612.360741   2694.545827  20417.175314    547.068549  6  3  5  91       
PG14  12866.536318  13473.206251  19008.309346    122.291634  4  8  4  61       
PG15  12778.464231  -9015.854367  21011.173849     57.983468  7     3  49       
PG16 -26782.774331   -943.743818    362.997708   -480.798155  6  7  7  54       
PG17  13727.362380  22578.012759  -1580.570685    720.888248  8  8  6  70       
PG18   2161.293651 -22826.250592  13260.445253   -345.653655  6  7  6  71       
PG19  16619.640672  18674.574142  -9653.390250    343.855524  9  6  3  31       
PG20  25654.000253   -854.358405  -6393.662131    422.604045  8  7  7  25       
PG21 -16588.994508  15641.061975  13374.614294    152.083180  7  7  5  84       
PG22 -17509.932789 -16126.755904 -11486.605591    512.713012  9  4  5  94       
PG23  -2907.406862 -14707.924780  21934.797953     43.238325  7  8  8  80       
PG24  14792.942828 -20069.446884   8155.722123   -257.925503  6  6  5  82       
PG25   5535.188981 -15400.742681 -21187.724143    456.057012  5  6  5  88       
PG26 -23817.114474  -5451.950207 -10943.838293    236.390515  7  6  6  72       
PG27 -18583.479674  -6053.933754  17918.101205     -3.195882  7  4  9  69       
PG28  -9868.314629 -13169.192276 -20868.797041     82.458458  6  6  3  88       
PG29   -848.924499 -22268.051481 -14429.300333   -605.565252  6  6  5  96       
PG30   4391.486820  19416.346107  17580.137134 999999.999999                    
PG31 -16286.172735  -1535.922716 -21170.388800   -220.118170  6  3  3  88       
PG32 -16618.615875 -20434.115236  -3996.032076   -521.201230  5  7  6  34       
EOF
